     3.02           N: GNSS NAV DATA    M: Mixed            RINEX VERSION / TYPE
GNSS-SDRLIB v1.1                        20230616 045718 UTC PGM / RUN BY / DATE 
                                                            END OF HEADER       
G 1 2023  5 18  0  0  0  .184581615031E-03 -.272848410532E-11  .000000000000E+00
      .960000000000E+02 -.125062500000E+03  .373372695329E-08 -.156273995355E+01
     -.639818608761E-05  .128551342059E-01  .952184200287E-05  .515364860344E+04
      .345600000000E+06  .286847352982E-06  .251875977689E+01  .000000000000E+00
      .990055042555E+00  .205656250000E+03  .961618936020E+00 -.756567228348E-08
     -.621454457501E-10  .100000000000E+01  .226200000000E+04  .000000000000E+00
      .240000000000E+01  .000000000000E+00  .465661287308E-08  .960000000000E+02
      .345636000000E+06  .000000000000E+00
G 4 2023  5 18  0  0  0  .441530719399E-04  .977706804406E-11  .000000000000E+00
      .210000000000E+02 -.106562500000E+02  .501306595718E-08  .151631255570E+00
     -.763684511185E-06  .237958249636E-02  .454112887383E-05  .515366054153E+04
      .345600000000E+06  .186264514923E-08 -.165342452489E+01  .372529029846E-08
      .962266467449E+00  .288906250000E+03 -.297143120573E+01 -.831391773662E-08
     -.270725562521E-09  .100000000000E+01  .226200000000E+04  .000000000000E+00
      .240000000000E+01  .000000000000E+00 -.465661287308E-08  .789000000000E+03
      .345636000000E+06  .000000000000E+00
G 7 2023  5 18  0  0  0  .175666064024E-03 -.932232069317E-11  .000000000000E+00
      .170000000000E+02 -.133125000000E+02  .435268130665E-08 -.219556435592E+01
     -.812113285065E-06  .172942095669E-01  .113490968943E-04  .515375325394E+04
      .345600000000E+06  .968575477600E-07 -.637953622838E+00 -.178813934326E-06
      .950471699213E+00  .152031250000E+03 -.219707903936E+01 -.761353141986E-08
     -.491449042254E-09  .100000000000E+01  .226200000000E+04  .000000000000E+00
      .240000000000E+01  .000000000000E+00 -.111758708954E-07  .170000000000E+02
      .345636000000E+06  .000000000000E+00
G 8 2023  5 18  0  0  0 -.122915953398E-03 -.181898940355E-11  .000000000000E+00
      .180000000000E+02 -.659375000000E+01  .490841874106E-08  .628397760020E+00
     -.344589352608E-06  .845196354203E-02  .620260834694E-06  .515369469643E+04
      .345600000000E+06  .577419996262E-07  .142673830554E+01  .178813934326E-06
      .958529985959E+00  .366812500000E+03  .266557415232E+00 -.869464788127E-08
      .210723063176E-10  .100000000000E+01  .226200000000E+04  .000000000000E+00
      .240000000000E+01  .000000000000E+00  .512227416039E-08  .180000000000E+02
      .345636000000E+06  .000000000000E+00
G 9 2023  5 18  0  0  0 -.156548805535E-03  .841282599140E-11  .000000000000E+00
      .440000000000E+02 -.256250000000E+01  .514842873844E-08  .104730545945E+01
     -.370666384697E-06  .234492844902E-02  .448897480965E-05  .515360480118E+04
      .345600000000E+06 -.223517417908E-07 -.171006784687E+01 -.521540641785E-07
      .955565034296E+00  .289093750000E+03  .195553431510E+01 -.836927718542E-08
     -.155720772109E-09  .100000000000E+01  .226200000000E+04  .000000000000E+00
      .240000000000E+01  .000000000000E+00  .931322574615E-09  .440000000000E+02
      .345666000000E+06  .000000000000E+00
G16 2023  5 18  0  0  0 -.500101130456E-03  .329691829393E-11  .000000000000E+00
      .600000000000E+02  .137125000000E+03  .432375153018E-08  .152883279672E+01
      .704824924469E-05  .133150742622E-01  .747665762901E-05  .515360359955E+04
      .345600000000E+06 -.176951289177E-06  .494495915865E+00  .111758708954E-07
      .965568368644E+00  .240125000000E+03  .788845488890E+00 -.822819988041E-08
      .275011455331E-09  .100000000000E+01  .226200000000E+04  .000000000000E+00
      .240000000000E+01  .000000000000E+00 -.102445483208E-07  .600000000000E+02
      .345666000000E+06  .000000000000E+00
G21 2023  5 18  0  0  0  .153761357069E-03 -.113686837722E-12  .000000000000E+00
      .410000000000E+02 -.133656250000E+03  .457554773279E-08  .587892115586E+00
     -.726617872715E-05  .246618727688E-01  .817887485027E-05  .515362587547E+04
      .345600000000E+06  .167638063431E-06  .241539016681E+01 -.443309545517E-06
      .961787885503E+00  .227468750000E+03 -.760900962328E+00 -.845356641069E-08
     -.160006664920E-09  .100000000000E+01  .226200000000E+04  .000000000000E+00
      .240000000000E+01  .000000000000E+00 -.102445483208E-07  .410000000000E+02
      .345666000000E+06  .000000000000E+00
G26 2023  5 18  0  0  0  .240657478571E-03 -.341060513165E-12  .000000000000E+00
      .530000000000E+02  .142093750000E+03  .486520265522E-08  .245833030296E+01
      .727549195290E-05  .788690359332E-02  .864826142788E-05  .515369631004E+04
      .345600000000E+06 -.875443220139E-07  .338576853256E+00 -.782310962677E-07
      .934418790453E+00  .197718750000E+03  .464711641082E+00 -.829034532616E-08
      .299298181256E-09  .100000000000E+01  .226200000000E+04  .000000000000E+00
      .240000000000E+01  .000000000000E+00  .698491930962E-08  .530000000000E+02
      .345666000000E+06  .000000000000E+00
G27 2023  5 18  0  0  0  .353120267391E-04 -.784439180279E-11  .000000000000E+00
      .980000000000E+02 -.134687500000E+02  .475091218028E-08  .654389288021E+00
     -.827014446259E-06  .115738506429E-01  .964850187302E-06  .515366282272E+04
      .345600000000E+06 -.135973095894E-06  .145001951301E+01  .167638063431E-06
      .967407618010E+00  .365750000000E+03  .736816443134E+00 -.866393231613E-08
     -.696457581682E-10  .100000000000E+01  .226200000000E+04  .000000000000E+00
      .240000000000E+01  .000000000000E+00  .139698386192E-08  .980000000000E+02
      .345666000000E+06  .000000000000E+00
G30 2023  5 18  0  0  0 -.516591127962E-03  .204636307899E-11  .000000000000E+00
      .570000000000E+02 -.142500000000E+02  .478484216502E-08 -.231232689763E+01
     -.832602381706E-06  .649000448175E-02  .112093985081E-04  .515359923935E+04
      .345600000000E+06 -.596046447754E-07 -.631696172155E+00 -.409781932831E-07
      .935603635601E+00  .149125000000E+03 -.258882263659E+01 -.798818988303E-08
     -.526450500205E-09  .100000000000E+01  .226200000000E+04  .000000000000E+00
      .240000000000E+01  .000000000000E+00  .325962901115E-08  .570000000000E+02
      .345666000000E+06  .000000000000E+00
G31 2023  5 18  0  0  0 -.216315966100E-03 -.682121026330E-12  .000000000000E+00
      .680000000000E+02  .593750000000E+01  .434768109837E-08 -.306453363687E+01
      .169500708580E-06  .105817206204E-01  .117588788271E-04  .515421974564E+04
      .345600000000E+06 -.242143869400E-07 -.618009738198E+00 -.143423676491E-06
      .954574758716E+00  .147281250000E+03  .530262690267E+00 -.773282210308E-08
     -.622168772970E-09  .100000000000E+01  .226200000000E+04  .000000000000E+00
      .240000000000E+01  .000000000000E+00 -.130385160446E-07  .680000000000E+02
      .345696000000E+06  .000000000000E+00
